#dP2024  1 29  0  0  0.00000000      96 __u+U IGS20 FIT  IAC
## 2299  86400.00000000   900.00000000 60338 0.0000000000000
+  119   C06C07C08C09C10C11C12C13C14C16C19C20C21C22C23C24C25
+        C26C27C28C29C30C32C33C34C35C36C37C38C39C40C41C42C43
+        C44C45C46E02E03E04E05E07E08E09E10E11E12E13E14E15E18
+        E19E21E24E25E26E27E30E31E33E34E36G01G02G03G04G05G06
+        G07G08G09G10G11G12G13G14G15G16G17G18G19G20G21G22G23
+        G24G25G26G28G29G30G31G32J02J03J04R01R02R03R04R05R07
+        R08R09R11R12R13R14R15R16R17R18R19R20R21R22R24R25R26
++         9  9  8  8  8  7  6  8  7  9  6  8  6  8  6  6  7
++         6  5  6  7  6  7  7  7  6  6  5  7  9 10  6  8  5
++         6  7  7  5  5  6  6  6  5  6  4  6  5  7  6  6  4
++         7  7  6  5  5  6  6  5  6  6  6  6  5  6  8  6  6
++         6  6  6  5  6  6  6  6  6  6  6  5  5  5  5  6  6
++         5  5  6  6  6  5  5  5  8  0  9  7  7  7  5  7  7
++         5  6  6  5  7  7  7  8  8  7  6  7  6  6  5  6  5
%c M  cc GPS ccc cccc cccc cccc cccc ccccc ccccc ccccc ccccc
%c cc cc ccc ccc cccc cccc cccc cccc ccccc ccccc ccccc ccccc
%f  0.0000000  0.000000000  0.00000000000  0.000000000000000
%f  0.0000000  0.000000000  0.00000000000  0.000000000000000
%i    0    0    0    0      0      0      0      0         0
%i    0    0    0    0      0      0      0      0         0
/* INFORMATION & ANALYSIS CENTER (IAC)      ULTRA-RAPID DATA
/* S/V CLOCKS ARE ALIGNED TO GNSS TIME                      
/* G:C1WC2W R:C1PC2P E:C1XC5X C:C2IC6I J:C1CC2S             
/* PCV:IGS20_2290 OL/AL:FES2004  NONE     YN ORB:CoN CLK:CoN
*  2024 01 29 22 30  0.00000000
PC06  -2323.908164  34978.150870  23677.442737     77.787414
PC07 -12653.869222  26763.656281 -29977.817085   -717.514601
PC08 -16997.637294  37133.008248  10000.746812     77.079483
PC09   3975.227114  39253.588783  16133.331815   -419.612949
PC10  -5157.168689  27405.612239 -31352.799133    106.215749
PC11  -2940.528596 -21121.422421  18075.103764    383.655735
PC12  13649.460304  -7871.162015  23074.935635    783.036238
PC13  -9763.546542  37068.950539  17435.748775    412.499550
PC14   6489.053846 -16650.448568 -21403.327574     75.105695
PC16  -3071.411736  34102.065850  25083.324297   -309.628759
PC19   4420.393181  15002.670827  23137.284597   -932.127751
PC20 -14890.978421  15913.761813  17458.286569   -112.658501
PC21  26948.307683  -7176.754523   -598.185887   -963.228603
PC22  22327.720655   5430.606225  15818.326259   -129.099572
PC23 -12512.133213 -12740.845580  21439.916401   -785.327136
PC24  12111.924276 -24159.208920  -7038.383115    836.217269
PC25  -1289.227814 -25776.601801  10626.132389    313.681188
PC26  17227.367899  -9251.132733 -19944.554290   -241.782869
PC27 -19396.719540     13.725616 -20075.152868    263.805910
PC28 -22118.016922 -14978.001277  -8063.852087    200.401126
PC29  11931.377295  22561.233553 -11296.372263    234.822332
PC30  -6211.827140  15701.974056 -22227.216776    -19.552927
PC32 -26917.311716   7368.976349    546.684683   -560.149837
PC33  -4443.614445 -15007.346940 -23097.802132   -945.397714
PC34   4838.980425 -16714.253710  21801.139012    357.991652
PC35  22689.991104  14191.460908   7969.953398    445.780597
PC36    288.268455  25984.919070 -10142.270000    -34.017252
PC37 -17423.306515   8263.795839  20162.776031   -933.470752
PC38 -20576.392813  36683.485718   1491.986708    133.574046
PC39  -7041.334505  29301.804430  29629.222683     -6.881830
PC40 -18881.308845  20037.053667 -32009.607190    -54.219584
PC41 -21839.277481  -5837.722825 -16313.050814   -884.372113
PC42  16350.873952 -15604.871834 -16305.168519   -459.813137
PC43 -11089.510070 -22595.072771  12015.807608     58.380048
PC44  19589.168278   -624.375598  19865.868955    368.828411
PC45  12542.286738  12403.287945 -21629.437175    -66.640029
PC46 -11596.569369  24602.949015   6127.480622   -119.629493
PE02   5959.061063  16523.063229 -23833.058274     99.131570
PE03  17454.152887  17818.385819  15928.571457    -90.326381
PE04 -28315.373067  -8420.950974   1867.153599   -315.185181
PE05  -3420.118379  16708.172643  24196.062903   4715.079475
PE07  22742.409891  -5523.517251 -18115.247333   -101.026222
PE08  28212.727708   8861.441296  -1208.430770   -215.742859
PE09 -22801.663213   5345.381963  18109.892665   -317.388406
PE10 -16119.809794    610.442236 -24817.446420   -597.955804
PE11 -12990.930472  12642.358021 -23407.457200   3269.927078
PE12 -16608.795473 -10154.829017 -22286.809229   -884.091284
PE13  13205.771059 -11870.237478  23690.228316    -20.036797
PE14  19401.863640  -3900.578673  12769.352369     24.633980
PE15  16519.309007  10773.920448  22088.465406    -82.913093
PE18 -26861.664626   4773.928632 -17420.063628    267.458976
PE19 -15303.499397 -18237.947508 -17578.438189   -715.909269
PE21  12283.306860 -23116.551052  13817.435227   -576.383409
PE24 -24281.844323  16132.444312   5023.155003   -569.485530
PE25 -12600.726281  23117.242370 -13518.775263      0.171639
PE26   1894.063219 -27493.520079  10808.036845    353.688283
PE27  24149.999989 -16483.007403  -4672.305700   -261.724976
PE30  21559.747586    119.185685 -20306.981284   -864.761063
PE31 -21635.581068    202.464085  20194.190822    -14.848342
PE33  -9795.443277 -27033.397100  -7021.139340      6.765750
PE34  10155.162244  26751.845888   7572.692876    -91.747379
PE36  -2215.939026  27228.497447 -11404.461483   -178.715493
PG01  13072.699802  -7206.349736  21595.660632    167.628573
PG02  15859.829161    647.002002  21830.814831   -493.440729
PG03  22043.970422  -9793.807156  10844.723464    159.370803
PG04  23646.534858   -221.195822 -12212.236765    278.689832
PG05 -18476.995157   -463.474665 -19278.561518   -159.834746
PG06  -5983.952220 -25764.537243  -1563.802134    426.867634
PG07   7073.525182 -19947.067395 -15263.458232    -49.432440
PG08  26035.531898   5017.779475   3742.943290   -164.524664
PG09  14297.498957 -10295.997242 -19976.231841     74.955844
PG10  -5194.799313  19762.293991  16989.558107    -71.270294
PG11 -11826.180518 -20296.164668 -12416.088369   -557.789931
PG12 -22745.342503   8119.139442  10688.364273   -472.845224
PG13 -22465.388221 -13974.835048  -3643.739042    620.653078
PG14   9054.876162 -20668.361161  13884.137099    311.964409
PG15 -26337.581756  -2378.673459   2981.441903    122.326328
PG16  14299.229659   7907.537187 -21351.011590   -373.839276
PG17    733.020125 -15758.368300  21774.660515    718.538243
PG18  -6398.381765  20932.152056 -14898.164993   -543.832644
PG19  -9698.376142 -17535.547970  17423.307568    433.433346
PG20  -9377.520562 -12642.517569 -21350.114332    389.471538
PG21  16774.790009   6887.713645  20202.412957    136.750874
PG22   2490.836456 -18588.677524  19349.546775     39.848518
PG23 -15494.764648  20476.311430   6412.543564    145.342706
PG24 -16533.893244  -2836.505553  20264.342280   -422.855439
PG25 -19989.642923  17196.503573   1131.046678    486.934329
PG26   6079.724165  15727.406423 -20593.936555    195.542482
PG28   5283.054908  25996.905117   1321.780660   -114.099385
PG29 -16214.977686   7693.701685 -19660.613764   -607.922790
PG30   -182.287174 -25552.807551  -6588.300261   -439.261288
PG31  10134.865031  22949.340992  -8277.769985   -227.564252
PG32   4178.892398  16487.901184  20646.472587   -608.529054
PJ02 -36438.617436  20842.336979    336.283094     -1.546938
PJ03 -19418.372560  24873.066196 -23296.581941     -0.205249
PJ04 -25830.379721  31383.913780  17627.433196     78.509598
PR01 -10343.162688  10834.336848  20653.712482     75.807900
PR02   8802.685297   9747.058913  21927.840283    -22.445975
PR03  23043.792135   3429.860876  10508.690301     93.519887
PR04  24317.328881  -4335.461482  -6371.289050    221.183089
PR05  12621.309212  -9877.534528 -19839.924946    126.083171
PR07 -23397.878511  -3003.322697  -9593.942212     74.647222
PR08 -24143.255623   4721.207401   6735.838305    -74.210840
PR09   -283.546725 -19322.869447  16618.024992    167.117416
PR11 -14672.809999  11729.461047  17268.869493     36.024165
PR12 -10957.457191  23021.632594   -371.010996     36.166917
PR13  -1723.087320  20588.957276 -14976.794659    -43.827959
PR14  10184.319412   4558.149521 -22934.161073     25.988630
PR15  14921.871767 -12873.522491 -16182.487290     82.644668
PR16  10945.429908 -23022.325180     98.867513     22.849158
PR17  16598.227750  14778.154766  12502.530543     56.768959
PR18  12240.050579    345.987563  22405.461097    124.705547
PR19   3239.738185 -13233.132794  21569.091992   -263.880971
PR20 -10485.334449 -22492.123567   5812.418624   -107.512753
PR21 -16450.845649 -14729.057457 -12784.165869    -72.859926
PR22 -12025.608003    603.393498 -22455.519382    105.554774
PR24  11639.522677  22100.534694  -5128.682734    -41.847437
PR25 -16120.393530 -15335.339075 -12482.041547     70.313452
PR26 -24454.797522   4455.002927   5794.759084   -200.976894
EOF
